{"type": "FeatureCollection", "features": [ {"type": "Feature", "properties": {"norad_id": 43648, "name": "BEIDOU-3 M15 (C34)", "group": "gnss", "lat": -43.36651863212468, "lon": 169.21870460069877, "alt_km": 21541.02313855316, "timestamp": "2025-12-15T20:48:54.128213+00:00", "meta": {"OBJECT_NAME": "BEIDOU-3 M15 (C34)", "OBJECT_ID": "2018-078B", "EPOCH": "2025-12-14T10:31:50.376000", "MEAN_MOTION": 1.86231962, "ECCENTRICITY": 0.00037442, "INCLINATION": 54.256, "RA_OF_ASC_NODE": 306.4619, "ARG_OF_PERICENTER": 18.2942, "MEAN_ANOMALY": 341.7074, "EPHEMERIS_TYPE": 0, "CLASSIFICATION_TYPE": "U", "NORAD_CAT_ID": 43648, "ELEMENT_SET_NO": 999, "REV_AT_EPOCH": 4873, "BSTAR": 0, "MEAN_MOTION_DOT": -1e-06, "MEAN_MOTION_DDOT": 0}, "tle": {"line1": "1 43648U 18078B   25348.43877750 -.00000100  00000+0  00000+0 0  9992", "line2": "2 43648  54.2560 306.4619 0003744  18.2942 341.7074  1.86231962 48738"}}, "geometry": {"type": "Point", "coordinates": [169.21870460069877, -43.36651863212468]}}, {"type": "Feature", "properties": {"norad_id": 43683, "name": "BEIDOU-3 G1 (C59)", "group": "gnss", "lat": 2.5095358747656284, "lon": 177.03084292094965, "alt_km": 35779.817266025355, "timestamp": "2025-12-15T20:48:54.128228+00:00", "meta": {"OBJECT_NAME": "BEIDOU-3 G1 (C59)", "OBJECT_ID": "2018-085A", "EPOCH": "2025-12-14T22:38:45.675744", "MEAN_MOTION": 1.00270224, "ECCENTRICITY": 0.00016305, "INCLINATION": 2.6134, "RA_OF_ASC_NODE": 102.9077, "ARG_OF_PERICENTER": 55.4139, "MEAN_ANOMALY": 45.2856, "EPHEMERIS_TYPE": 0, "CLASSIFICATION_TYPE": "U", "NORAD_CAT_ID": 43683, "ELEMENT_SET_NO": 999, "REV_AT_EPOCH": 2621, "BSTAR": 0, "MEAN_MOTION_DOT": -2.58e-06, "MEAN_MOTION_DDOT": 0}, "tle": {"line1": "1 43683U 18085A   25348.94358421 -.00000258  00000+0  00000+0 0  9998", "line2": "2 43683   2.6134 102.9077 0001630  55.4139  45.2856  1.00270224 26214"}}, "geometry": {"type": "Point", "coordinates": [177.03084292094965, 2.5095358747656284]}}, {"type": "Feature", "properties": {"norad_id": 43687, "name": "COSMOS 2529 (757)", "group": "gnss", "lat": 45.61360853954661, "lon": -10.699311410720151, "alt_km": 19135.502327119928, "timestamp": "2025-12-15T20:48:54.128239+00:00", "meta": {"OBJECT_NAME": "COSMOS 2529 (757)", "OBJECT_ID": "2018-086A", "EPOCH": "2025-12-14T07:02:10.344192", "MEAN_MOTION": 2.13101932, "ECCENTRICITY": 0.00071555, "INCLINATION": 64.2921, "RA_OF_ASC_NODE": 198.8359, "ARG_OF_PERICENTER": 254.022, "MEAN_ANOMALY": 105.9754, "EPHEMERIS_TYPE": 0, "CLASSIFICATION_TYPE": "U", "NORAD_CAT_ID": 43687, "ELEMENT_SET_NO": 999, "REV_AT_EPOCH": 5534, "BSTAR": 0, "MEAN_MOTION_DOT": 9.3e-07, "MEAN_MOTION_DDOT": 0}, "tle": {"line1": "1 43687U 18086A   25348.29317528  .00000093  00000+0  00000+0 0  9990", "line2": "2 43687  64.2921 198.8359 0007155 254.0220 105.9754  2.13101932 55340"}}, "geometry": {"type": "Point", "coordinates": [-10.699311410720151, 45.61360853954661]}}, {"type": "Feature", "properties": {"norad_id": 43706, "name": "BEIDOU-3 M17 (C36)", "group": "gnss", "lat": 37.44307740393602, "lon": -25.074681625458325, "alt_km": 21540.900715208863, "timestamp": "2025-12-15T20:48:54.128251+00:00", "meta": {"OBJECT_NAME": "BEIDOU-3 M17 (C36)", "OBJECT_ID": "2018-093A", "EPOCH": "2025-12-14T07:59:38.666688", "MEAN_MOTION": 1.86228504, "ECCENTRICITY": 0.00061786, "INCLINATION": 54.1727, "RA_OF_ASC_NODE": 188.5675, "ARG_OF_PERICENTER": 307.5384, "MEAN_ANOMALY": 235.2938, "EPHEMERIS_TYPE": 0, "CLASSIFICATION_TYPE": "U", "NORAD_CAT_ID": 43706, "ELEMENT_SET_NO": 999, "REV_AT_EPOCH": 4809, "BSTAR": 0, "MEAN_MOTION_DOT": 1.06e-06, "MEAN_MOTION_DDOT": 0}, "tle": {"line1": "1 43706U 18093A   25348.33308642  .00000106  00000+0  00000+0 0  9997", "line2": "2 43706  54.1727 188.5675 0006178 307.5384 235.2938  1.86228504 48099"}}, "geometry": {"type": "Point", "coordinates": [-25.074681625458325, 37.44307740393602]}}, {"type": "Feature", "properties": {"norad_id": 43707, "name": "BEIDOU-3 M18 (C37)", "group": "gnss", "lat": -34.420761646515935, "lon": 38.19423592578708, "alt_km": 21543.8137695755, "timestamp": "2025-12-15T20:48:54.128262+00:00", "meta": {"OBJECT_NAME": "BEIDOU-3 M18 (C37)", "OBJECT_ID": "2018-093B", "EPOCH": "2025-12-12T20:21:07.427232", "MEAN_MOTION": 1.86226583, "ECCENTRICITY": 0.00063344, "INCLINATION": 54.1732, "RA_OF_ASC_NODE": 188.6097, "ARG_OF_PERICENTER": 352.9631, "MEAN_ANOMALY": 7.0898, "EPHEMERIS_TYPE": 0, "CLASSIFICATION_TYPE": "U", "NORAD_CAT_ID": 43707, "ELEMENT_SET_NO": 999, "REV_AT_EPOCH": 4806, "BSTAR": 0, "MEAN_MOTION_DOT": 8.8e-07, "MEAN_MOTION_DDOT": 0}, "tle": {"line1": "1 43707U 18093B   25346.84800263  .00000088  00000+0  00000+0 0  9997", "line2": "2 43707  54.1732 188.6097 0006334 352.9631   7.0898  1.86226583 48060"}}, "geometry": {"type": "Point", "coordinates": [38.19423592578708, -34.420761646515935]}}, {"type": "Feature", "properties": {"norad_id": 43873, "name": "GPS BIII-1  (PRN 04)", "group": "gnss", "lat": -46.708798794425384, "lon": -33.919514248403004, "alt_km": 20120.250451369917, "timestamp": "2025-12-15T20:48:54.128274+00:00", "meta": {"OBJECT_NAME": "GPS BIII-1  (PRN 04)", "OBJECT_ID": "2018-109A", "EPOCH": "2025-12-14T18:33:31.413600", "MEAN_MOTION": 2.00553757, "ECCENTRICITY": 0.00374, "INCLINATION": 55.5684, "RA_OF_ASC_NODE": 99.4666, "ARG_OF_PERICENTER": 195.0912, "MEAN_ANOMALY": 336.5701, "EPHEMERIS_TYPE": 0, "CLASSIFICATION_TYPE": "U", "NORAD_CAT_ID": 43873, "ELEMENT_SET_NO": 999, "REV_AT_EPOCH": 5137, "BSTAR": 0, "MEAN_MOTION_DOT": -2.6e-07, "MEAN_MOTION_DDOT": 0}, "tle": {"line1": "1 43873U 18109A   25348.77328025 -.00000026  00000+0  00000+0 0  9997", "line2": "2 43873  55.5684  99.4666 0037400 195.0912 336.5701  2.00553757 51376"}}, "geometry": {"type": "Point", "coordinates": [-33.919514248403004, -46.708798794425384]}}, {"type": "Feature", "properties": {"norad_id": 44204, "name": "BEIDOU-3 IGSO-1 (C38)", "group": "gnss", "lat": 53.28360411109196, "lon": 164.18345352241866, "alt_km": 35830.21177280582, "timestamp": "2025-12-15T20:48:54.128285+00:00", "meta": {"OBJECT_NAME": "BEIDOU-3 IGSO-1 (C38)", "OBJECT_ID": "2019-023A", "EPOCH": "2025-11-19T14:15:02.708640", "MEAN_MOTION": 1.00252177, "ECCENTRICITY": 0.0026966, "INCLINATION": 58.4003, "RA_OF_ASC_NODE": 39.8168, "ARG_OF_PERICENTER": 221.2202, "MEAN_ANOMALY": 126.9723, "EPHEMERIS_TYPE": 0, "CLASSIFICATION_TYPE": "U", "NORAD_CAT_ID": 44204, "ELEMENT_SET_NO": 999, "REV_AT_EPOCH": 510, "BSTAR": 0, "MEAN_MOTION_DOT": -2.26e-06, "MEAN_MOTION_DDOT": 0}, "tle": {"line1": "1 44204U 19023A   25323.59378135 -.00000226  00000+0  00000+0 0  9994", "line2": "2 44204  58.4003  39.8168 0026966 221.2202 126.9723  1.00252177  5102"}}, "geometry": {"type": "Point", "coordinates": [164.18345352241866, 53.28360411109196]}}, {"type": "Feature", "properties": {"norad_id": 44231, "name": "BEIDOU-2 G8 (C01)", "group": "gnss", "lat": 1.5907162069923815, "lon": -178.60855423598525, "alt_km": 35819.206570608985, "timestamp": "2025-12-15T20:48:54.128304+00:00", "meta": {"OBJECT_NAME": "BEIDOU-2 G8 (C01)", "OBJECT_ID": "2019-027A", "EPOCH": "2025-12-14T22:39:45.580320", "MEAN_MOTION": 1.00267531, "ECCENTRICITY": 0.00087597, "INCLINATION": 1.6677, "RA_OF_ASC_NODE": 74.714, "ARG_OF_PERICENTER": 257.4473, "MEAN_ANOMALY": 236.1, "EPHEMERIS_TYPE": 0, "CLASSIFICATION_TYPE": "U", "NORAD_CAT_ID": 44231, "ELEMENT_SET_NO": 999, "REV_AT_EPOCH": 2423, "BSTAR": 0, "MEAN_MOTION_DOT": -2.29e-06, "MEAN_MOTION_DDOT": 0}, "tle": {"line1": "1 44231U 19027A   25348.94427755 -.00000229  00000+0  00000+0 0  9990", "line2": "2 44231   1.6677  74.7140 0008759 257.4473 236.1000  1.00267531 24235"}}, "geometry": {"type": "Point", "coordinates": [-178.60855423598525, 1.5907162069923815]}}, {"type": "Feature", "properties": {"norad_id": 44299, "name": "COSMOS 2534 (758)", "group": "gnss", "lat": -63.198303692333724, "lon": 90.69644748996792, "alt_km": 19115.0585362059, "timestamp": "2025-12-15T20:48:54.128320+00:00", "meta": {"OBJECT_NAME": "COSMOS 2534 (758)", "OBJECT_ID": "2019-030A", "EPOCH": "2025-12-10T14:34:24.563136", "MEAN_MOTION": 2.13102261, "ECCENTRICITY": 0.0008999, "INCLINATION": 64.3653, "RA_OF_ASC_NODE": 198.9649, "ARG_OF_PERICENTER": 283.4628, "MEAN_ANOMALY": 263.2195, "EPHEMERIS_TYPE": 0, "CLASSIFICATION_TYPE": "U", "NORAD_CAT_ID": 44299, "ELEMENT_SET_NO": 999, "REV_AT_EPOCH": 5090, "BSTAR": 0, "MEAN_MOTION_DOT": 4.7e-07, "MEAN_MOTION_DDOT": 0}, "tle": {"line1": "1 44299U 19030A   25344.60722874  .00000047  00000+0  00000+0 0  9994", "line2": "2 44299  64.3653 198.9649 0008999 283.4628 263.2195  2.13102261 50901"}}, "geometry": {"type": "Point", "coordinates": [90.69644748996792, -63.198303692333724]}}, {"type": "Feature", "properties": {"norad_id": 44337, "name": "BEIDOU-3 IGSO-2 (C39)", "group": "gnss", "lat": -3.129250262263634, "lon": 158.2805641502859, "alt_km": 35928.38623326966, "timestamp": "2025-12-15T20:48:54.128335+00:00", "meta": {"OBJECT_NAME": "BEIDOU-3 IGSO-2 (C39)", "OBJECT_ID": "2019-035A", "EPOCH": "2025-12-13T21:01:33.834720", "MEAN_MOTION": 1.00271067, "ECCENTRICITY": 0.00372664, "INCLINATION": 55.226, "RA_OF_ASC_NODE": 160.4907, "ARG_OF_PERICENTER": 202.3075, "MEAN_ANOMALY": 154.8952, "EPHEMERIS_TYPE": 0, "CLASSIFICATION_TYPE": "U", "NORAD_CAT_ID": 44337, "ELEMENT_SET_NO": 999, "REV_AT_EPOCH": 2380, "BSTAR": 0, "MEAN_MOTION_DOT": -3.9e-07, "MEAN_MOTION_DDOT": 0}, "tle": {"line1": "1 44337U 19035A   25347.87608605 -.00000039  00000+0  00000+0 0  9991", "line2": "2 44337  55.2260 160.4907 0037266 202.3075 154.8952  1.00271067 23804"}}, "geometry": {"type": "Point", "coordinates": [158.2805641502859, -3.129250262263634]}}]}